[{"OBJECT_NAME":"STARLINK-31030","OBJECT_ID":"2023-192M","EPOCH":"2026-03-09T22:51:35.326080","MEAN_MOTION":15.30174958,"ECCENTRICITY":0.00011889,"INCLINATION":53.1597,"RA_OF_ASC_NODE":61.6592,"ARG_OF_PERICENTER":57.0605,"MEAN_ANOMALY":303.051,"EPHEMERIS_TYPE":0,"CLASSIFICATION_TYPE":"U","NORAD_CAT_ID":58542,"ELEMENT_SET_NO":999,"REV_AT_EPOCH":12602,"BSTAR":-4.1279762e-5,"MEAN_MOTION_DOT":-1.58e-5,"MEAN_MOTION_DDOT":0},{"OBJECT_NAME":"CONTECSAT-1","OBJECT_ID":"2024-043V","EPOCH":"2026-03-09T22:02:35.535840","MEAN_MOTION":15.34615346,"ECCENTRICITY":0.00100896,"INCLINATION":97.5476,"RA_OF_ASC_NODE":207.3735,"ARG_OF_PERICENTER":223.9905,"MEAN_ANOMALY":136.0535,"EPHEMERIS_TYPE":0,"CLASSIFICATION_TYPE":"U","NORAD_CAT_ID":59117,"ELEMENT_SET_NO":999,"REV_AT_EPOCH":11201,"BSTAR":0.0004369392,"MEAN_MOTION_DOT":0.00014607,"MEAN_MOTION_DDOT":0}]
